ONEWEB-0271             
1 48989U 21060Y   25238.53063510 -.00000020  00000+0 -84972-4 0  9997
2 48989  87.9010 287.5001 0001839  87.0674 273.0668 13.16593397200899
ONEWEB-0272             
1 48990U 21060Z   25238.55280629 -.00000060  00000+0 -18942-3 0  9990
2 48990  87.9005 287.5248 0001995  87.1901 272.9458 13.16594651200849
ONEWEB-0273             
1 48991U 21060AA  25238.57497217  .00000010  00000+0 -79986-5 0  9997
2 48991  87.9008 287.5071 0001769  92.5165 267.6168 13.16592994200823
ONEWEB-0274             
1 48992U 21060AB  25238.60030065  .00000064  00000+0  13414-3 0  9996
2 48992  87.9004 287.5348 0002268  87.8009 272.3382 13.16593044200868
ONEWEB-0275             
1 48993U 21060AC  25238.58920727 -.00000035  00000+0 -12625-3 0  9990
2 48993  87.9008 287.4994 0001973  91.2528 268.8829 13.16593451200796
ONEWEB-0276             
1 48994U 21060AD  25238.54647135 -.00000049  00000+0 -16205-3 0  9999
2 48994  87.9010 287.5051 0001780  95.7024 264.4310 13.16593540200809
ONEWEB-0277             
1 48995U 21060AE  25238.55912720  .00000002  00000+0 -29587-4 0  9992
2 48995  87.9005 287.5363 0001809  83.5787 276.5550 13.16593657200790
ONEWEB-0278             
1 48996U 21060AF  25238.54963586 -.00000088  00000+0 -26478-3 0  9998
2 48996  87.9008 287.5011 0001885 101.0510 259.0833 13.16593733200928
ONEWEB-0279             
1 48997U 21060AG  25238.55755064 -.00000013  00000+0 -67239-4 0  9999
2 48997  87.9006 287.4951 0001970  85.5578 274.5778 13.16594455200858
ONEWEB-0280             
1 48998U 21060AH  25238.57257359 -.00000070  00000+0 -21704-3 0  9995
2 48998  87.9011 287.4999 0001556  94.9271 265.2038 13.16594825200791
ONEWEB-0281             
1 48999U 21060AJ  25238.50212967  .00000042  00000+0  75833-4 0  9995
2 48999  87.9008 287.5108 0002084  93.5189 266.6180 13.16592715200857
ONEWEB-0282             
1 49000U 21060AK  25238.53221624 -.00000090  00000+0 -26969-3 0  9992
2 49000  87.9009 287.5144 0001775  91.8367 268.2967 13.16593623200835
ONEWEB-0283             
1 49001U 21060AL  25238.59713593  .00000041  00000+0  73209-4 0  9994
2 49001  87.9001 287.5050 0001871  88.4637 271.6708 13.16594215200854
ONEWEB-0284             
1 49002U 21060AM  25238.59080503  .00000043  00000+0  79502-4 0  9997
2 49002  87.9017 287.4847 0001759 102.5295 257.6033 13.16593668200832
ONEWEB-0285             
1 49075U 21075A   25238.55614382  .00000194  00000+0  50349-3 0  9991
2 49075  87.8866  49.2086 0001684  91.8570 268.2752 13.12441378196561
ONEWEB-0286             
1 49076U 21075B   25238.53800249  .00000391  00000+0  10518-2 0  9991
2 49076  87.8883  49.2453 0001850  94.3272 265.8068 13.12444603195916
ONEWEB-0287             
1 49077U 21075C   25238.53431181  .00000049  00000+0  93094-4 0  9999
2 49077  87.9036  64.4873 0001976 101.2685 258.8669 13.17647848194827
ONEWEB-0288             
1 49078U 21075D   25238.51382115 -.00000129  00000+0 -39532-3 0  9997
2 49078  87.8871  49.2118 0001701  96.4113 263.7209 13.12443650196539
ONEWEB-0289             
1 49079U 21075E   25238.57297874  .00000032  00000+0  48955-4 0  9992
2 49079  87.9017  64.5080 0001326  94.4630 265.6653 13.17651821195401
ONEWEB-0290             
1 49080U 21075F   25238.54611169 -.00000101  00000+0 -29391-3 0  9999
2 49080  87.9027  64.4661 0001140  83.7355 276.3906 13.17649377194814
ONEWEB-0291             
1 49081U 21075G   25238.53094730  .00000066  00000+0  13702-3 0  9995
2 49081  87.9034  64.4728 0001683 102.6686 257.4634 13.17647089194802
ONEWEB-0293             
1 49082U 21075H   25238.55626261  .00000017  00000+0  11404-4 0  9992
2 49082  87.9023  64.4990 0001608  90.9601 269.1715 13.17649574194839
ONEWEB-0294             
1 49083U 21075J   25238.52031274 -.00000020  00000+0 -90416-4 0  9990
2 49083  87.8873  49.2107 0001292 100.7321 259.3953 13.12443587195928
ONEWEB-0295             
1 49084U 21075K   25238.55539791  .00000031  00000+0  46844-4 0  9997
2 49084  87.9031  64.5011 0001779 101.3801 258.7530 13.17650601194790
ONEWEB-0296             
1 49085U 21075L   25238.50084194 -.00000384  00000+0 -11015-2 0  9998
2 49085  87.8867  49.2205 0001625 110.7189 249.4114 13.12442056195924
ONEWEB-0297             
1 49086U 21075M   25238.53167401  .00000281  00000+0  74679-3 0  9995
2 49086  87.8865  49.2529 0001806  93.3566 266.7770 13.12443682196532
ONEWEB-0298             
1 49087U 21075N   25238.55974437  .00000029  00000+0  41919-4 0  9995
2 49087  87.9022  64.4963 0001923  90.9028 269.2324 13.17651051194825
ONEWEB-0299             
1 49088U 21075P   25238.56131212  .00000019  00000+0  14816-4 0  9998
2 49088  87.9033  64.4506 0001940  93.6541 266.4812 13.17648983194809
ONEWEB-0300             
1 49089U 21075Q   25238.52355735  .00000018  00000+0  16013-4 0  9993
2 49089  87.8869  49.2069 0002005  84.4218 275.7139 13.12443364196553
ONEWEB-0301             
1 49090U 21075R   25238.50733380 -.00000382  00000+0 -10985-2 0  9995
2 49090  87.8865  49.2151 0002064  82.4579 277.6784 13.12442814195911
ONEWEB-0302             
1 49091U 21075S   25238.41812486 -.00000245  00000+0 -71609-3 0  9990
2 49091  87.8873  49.2377 0001468 101.4737 258.6557 13.12442520195883
ONEWEB-0304             
1 49092U 21075T   25238.53599531  .00000088  00000+0  19383-3 0  9991
2 49092  87.9029  64.4870 0001783  93.2739 266.8597 13.17648303194779
ONEWEB-0305             
1 49093U 21075U   25238.52925700  .00000018  00000+0  12920-4 0  9996
2 49093  87.9034  64.4644 0001980 101.3597 258.7757 13.17650765194804
ONEWEB-0308             
1 49094U 21075V   25238.41163568 -.00000090  00000+0 -28645-3 0  9993
2 49094  87.8870  49.2305 0001741  92.0258 268.1070 13.12440947195899
ONEWEB-0309             
1 49095U 21075W   25238.53261547  .00000054  00000+0  10707-3 0  9991
2 49095  87.9030  64.4813 0001358  96.5436 263.5850 13.17650714194774
ONEWEB-0310             
1 49096U 21075X   25238.50246476 -.00000431  00000+0 -12334-2 0  9991
2 49096  87.8867  49.2587 0001623  93.4387 266.6928 13.12442416196536
ONEWEB-0311             
1 49097U 21075Y   25238.53936584 -.00000083  00000+0 -24606-3 0  9990
2 49097  87.9023  64.4790 0002041  98.2339 261.9024 13.17650040194826
ONEWEB-0312             
1 49098U 21075Z   25238.55455089 -.00000151  00000+0 -42091-3 0  9993
2 49098  87.9022  64.5078 0001718 101.5197 258.6128 13.17648770194809
ONEWEB-0313             
1 49099U 21075AA  25238.55949303  .00000045  00000+0  82348-4 0  9991
2 49099  87.9016  64.5196 0001784  92.4924 267.6412 13.17648620194791
ONEWEB-0314             
1 49100U 21075AB  25238.52586728 -.00000254  00000+0 -68733-3 0  9994
2 49100  87.9029  64.4621 0001755 101.6226 258.5103 13.17649031194766
ONEWEB-0315             
1 49101U 21075AC  25238.47651366  .00000296  00000+0  78771-3 0  9997
2 49101  87.8867  49.2090 0002112  96.1232 264.0137 13.12441205196512
ONEWEB-0316             
1 49102U 21075AD  25238.37865127  .00000071  00000+0  14839-3 0  9995
2 49102  87.9156  34.0129 0002001  94.6433 265.4928 13.18688372198354
ONEWEB-0317             
1 49103U 21075AE  25238.54627391  .00000381  00000+0  10237-2 0  9995
2 49103  87.8865  49.2094 0000942  80.7410 279.3825 13.12442261196541
ONEWEB-0318             
1 49104U 21075AF  25238.14772924  .00000037  00000+0  61740-4 0  9990
2 49104  87.9157  34.0457 0002017  97.5013 262.6348 13.18684945198283
ONEWEB-0319             
1 49105U 21075AG  25238.54105886  .00000055  00000+0  10937-3 0  9993
2 49105  87.9026  64.5039 0002057  98.6592 261.4773 13.17648281194806
ONEWEB-0323             
1 49106U 21075AH  25238.53653372  .00000530  00000+0  14376-2 0  9999
2 49106  87.8868  49.1975 0002272 106.3343 253.8036 13.12442827195900
ONEWEB-0329             
1 49107U 21075AJ  25238.54950164  .00000052  00000+0  10086-3 0  9994
2 49107  87.9021  64.5064 0001873  96.4133 263.7212 13.17649892194782
ONEWEB-0330             
1 49108U 21075AK  25238.55034460  .00000053  00000+0  10338-3 0  9999
2 49108  87.9025  64.5093 0001584  96.4079 263.7233 13.17651651194821
ONEWEB-0292             
1 49186U 21083A   25238.35826735 -.00000037  00000+0 -13548-3 0  9996
2 49186  87.9007  18.8335 0001930  99.2893 260.8454 13.13470335192227
ONEWEB-0303             
1 49187U 21083B   25238.44794241  .00000105  00000+0  23350-3 0  9999
2 49187  87.9157  33.9865 0001944  97.1762 262.9591 13.18686968191137
ONEWEB-0306             
1 49188U 21083C   25238.43804580  .00000072  00000+0  14924-3 0  9997
2 49188  87.9159  33.9740 0001587  90.3590 269.7724 13.18686730191173
ONEWEB-0307             
1 49189U 21083D   25238.42851030 -.00000253  00000+0 -72793-3 0  9990
2 49189  87.8996  18.8193 0001446 101.4717 258.6574 13.13472637192237
ONEWEB-0320             
1 49190U 21083E   25238.44462024 -.00000078  00000+0 -23112-3 0  9991
2 49190  87.9157  34.0010 0001802  95.0917 265.0421 13.18686997191135
ONEWEB-0321             
1 49191U 21083F   25238.50700604  .00000128  00000+0  28237-3 0  9995
2 49191  87.9290 333.1661 0001597  94.8116 265.3199 13.20770530197937
ONEWEB-0322             
1 49192U 21083G   25238.42429539 -.00000250  00000+0 -71933-3 0  9991
2 49192  87.9008  18.8144 0001425  89.0354 271.0939 13.13471351192222
ONEWEB-0324             
1 49193U 21083H   25238.50730368  .00000070  00000+0  14468-3 0  9994
2 49193  87.9157  33.9681 0001681  98.8223 261.3100 13.18688163191169
ONEWEB-0325             
1 49194U 21083J   25238.43474256  .00000060  00000+0  11857-3 0  9996
2 49194  87.9159  33.9998 0001732  90.7687 269.3644 13.18686812191165
ONEWEB-0326             
1 49195U 21083K   25238.44972723  .00000082  00000+0  17521-3 0  9998
2 49195  87.9155  33.9854 0002132  96.2208 263.9167 13.18688670191151
ONEWEB-0327             
1 49196U 21083L   25238.14592676  .00000042  00000+0  74647-4 0  9990
2 49196  87.9151  34.0735 0002106  95.4512 264.6861 13.18688008191130
